OBJECT_NAME,OBJECT_ID,EPOCH,MEAN_MOTION,ECCENTRICITY,INCLINATION,RA_OF_ASC_NODE,ARG_OF_PERICENTER,MEAN_ANOMALY,EPHEMERIS_TYPE,CLASSIFICATION_TYPE,NORAD_CAT_ID,ELEMENT_SET_NO,REV_AT_EPOCH,BSTAR,MEAN_MOTION_DOT,MEAN_MOTION_DDOT
STARLINK-37531,2026-110N,2026-06-08T06:00:04.000320,15.66120005,.00023366,97.2854,355.6213,78.5352,81.2005,0,U,69136,999,422,-.28565543E-1,-.254767E-1,0
STARLINK-37662,2026-110P,2026-06-08T06:00:04.000320,15.60074688,.00008014,97.2852,355.5927,67.2581,22.6201,0,U,69137,999,422,-.36680047E-1,-.2571859E-1,0
STARLINK-37658,2026-110Q,2026-06-08T06:00:04.000320,15.51851335,.00014383,97.2847,355.5313,119.4749,188.4905,0,U,69138,999,422,-.20464164E-1,-.1106387E-1,0
STARLINK-37659,2026-110R,2026-06-08T06:00:04.000320,15.49153470,.00014978,97.2857,355.5134,90.7063,178.3591,0,U,69139,999,422,.27383827E-3,.14812E-3,0
STARLINK-37653,2026-110S,2026-06-08T06:00:04.000320,15.49180075,.00013126,97.2858,355.5070,96.9582,158.3224,0,U,69140,999,422,.10915128E-3,.5848E-4,0
STARLINK-37654,2026-110T,2026-06-08T06:00:04.000320,15.59057807,.00017461,97.2854,355.5991,70.2310,35.1673,0,U,69141,999,422,-.36471041E-1,-.2475216E-1,0
STARLINK-37655,2026-110U,2026-06-08T06:00:04.000320,15.64314398,.0002141,97.2852,355.6154,74.7995,72.0955,0,U,69142,999,422,-.21633202E-1,-.1835371E-1,0
STARLINK-37636,2026-110V,2026-06-08T06:00:04.000320,15.71843977,.00019714,97.2849,355.6574,98.2078,150.8125,0,U,69143,999,422,-.23148931E-1,-.2607669E-1,0
STARLINK-37638,2026-110W,2026-06-08T06:00:04.000320,15.72382695,.00019014,97.2846,355.6605,97.8838,158.7546,0,U,69144,999,422,-.22971479E-1,-.26423E-1,0
STARLINK-37657,2026-110X,2026-06-08T06:00:04.000320,15.58058917,.00018207,97.2853,355.6019,74.8352,35.6571,0,U,69145,999,427,-.38799551E-1,-.2527211E-1,0
STARLINK-37639,2026-110Y,2026-06-08T06:00:04.000320,15.72845617,.00019078,97.2845,355.6657,98.6113,168.5463,0,U,69146,999,427,-.21988648E-1,-.2588085E-1,0
STARLINK-37661,2026-110Z,2026-06-08T06:00:04.000320,15.51823610,.00018423,97.2852,355.5580,64.4215,310.8968,0,U,69147,999,427,-.52438357E-1,-.2745457E-1,0
STARLINK-37395,2026-111A,2026-06-08T05:31:15.590784,15.80936495,.00012128,53.1588,196.5511,73.2464,286.8692,0,U,69148,999,284,.10174695E-2,.205569E-2,0
STARLINK-37346,2026-111B,2026-06-07T14:19:23.565792,15.80987715,.00007869,53.1585,199.7124,100.4567,259.6544,0,U,69149,999,274,.12302E-2,.250605E-2,0
STARLINK-37332,2026-111C,2026-06-08T05:28:16.064544,15.79088070,.00011412,53.1591,196.5365,258.4008,101.6886,0,U,69150,999,284,-.55211072E-2,-.904975E-2,0
STARLINK-37297,2026-111D,2026-06-07T21:54:15.648768,15.80961310,.00009628,53.1586,198.1266,123.2494,236.8621,0,U,69151,999,279,.99471756E-3,.201082E-2,0
STARLINK-37317,2026-111E,2026-06-08T05:26:37.067424,15.80971577,.00008539,53.1586,196.5287,64.3540,295.7570,0,U,69152,999,284,.16471875E-2,.339039E-2,0
STARLINK-37374,2026-111F,2026-06-08T06:00:04.000320,15.73386762,.00013914,53.1597,196.4335,68.9243,52.9323,0,U,69153,999,411,-.20544581E-1,-.2540472E-1,0
STARLINK-37235,2026-111G,2026-06-08T06:00:04.000320,15.66682284,.00010463,53.1602,196.5379,48.1970,22.5509,0,U,69154,999,411,-.27300122E-1,-.2543912E-1,0
STARLINK-37329,2026-111H,2026-06-08T05:27:15.813504,15.80925290,.0000867,53.1589,196.5315,100.8334,259.2786,0,U,69155,999,284,.75485542E-3,.151287E-2,0
STARLINK-37345,2026-111J,2026-06-07T09:41:43.276704,15.80989237,.00023159,53.1585,200.6415,120.8458,239.2793,0,U,69156,999,271,.15797067E-2,.324837E-2,0
STARLINK-37353,2026-111K,2026-06-08T05:24:52.488000,15.80991412,.00012799,53.1587,196.5214,48.0548,312.0584,0,U,69157,999,284,.20705073E-2,.431389E-2,0
STARLINK-37363,2026-111L,2026-06-08T02:19:48.544896,15.80914232,.0001373,53.1585,197.1387,54.5636,305.5515,0,U,69158,999,282,.10525671E-2,.212642E-2,0
STARLINK-37343,2026-111M,2026-06-08T06:00:04.000320,15.72557619,.00013174,53.1600,196.4233,69.0144,57.4723,0,U,69159,999,411,-.21859184E-1,-.2598712E-1,0
STARLINK-37328,2026-111N,2026-06-08T00:00:04.000320,15.80850857,.00012552,53.1589,197.6242,78.9824,89.2388,0,U,69160,999,407,.28369265E-3,.55597E-3,0
STARLINK-37311,2026-111P,2026-06-08T06:00:04.000320,15.78092794,.00006251,53.1594,196.3939,118.4562,22.8089,0,U,69161,999,411,-.4510768E-3,-.784E-3,0
STARLINK-36286,2026-111Q,2026-06-08T06:00:04.000320,15.78097937,.00010822,53.1593,196.3839,73.3062,72.8778,0,U,69162,999,411,-.50009641E-3,-.86788E-3,0
STARLINK-37196,2026-111R,2026-06-08T00:00:04.000320,15.78020591,.0000939,53.1593,197.6615,111.3345,38.2671,0,U,69163,999,407,.34070827E-3,.58804E-3,0
STARLINK-36288,2026-111S,2026-06-08T02:23:25.761408,15.78085957,.00011079,53.1597,197.1562,65.4112,294.7025,0,U,69164,999,282,.10531849E-2,.186497E-2,0
STARLINK-37445,2026-111T,2026-06-08T06:00:04.000320,15.78088221,.00007523,53.1593,196.3687,100.3666,52.7535,0,U,69165,999,411,-.41407669E-3,-.72063E-3,0
