STARLINK-37531          
1 69136U 26110N   26159.25004630 -.02547670  00000+0 -28566-1 0  9998
2 69136  97.2854 355.6213 0002336  78.5352  81.2005 15.66120005  4221
STARLINK-37662          
1 69137U 26110P   26159.25004630 -.02571859  00000+0 -36680-1 0  9991
2 69137  97.2852 355.5927 0000801  67.2581  22.6201 15.60074688  4221
STARLINK-37658          
1 69138U 26110Q   26159.25004630 -.01106387  00000+0 -20464-1 0  9994
2 69138  97.2847 355.5313 0001438 119.4749 188.4905 15.51851335  4222
STARLINK-37659          
1 69139U 26110R   26159.25004630  .00014812  00000+0  27384-3 0  9993
2 69139  97.2857 355.5134 0001497  90.7063 178.3591 15.49153470  4221
STARLINK-37653          
1 69140U 26110S   26159.25004630  .00005848  00000+0  10915-3 0  9996
2 69140  97.2858 355.5070 0001312  96.9582 158.3224 15.49180075  4225
STARLINK-37654          
1 69141U 26110T   26159.25004630 -.02475216  00000+0 -36471-1 0  9994
2 69141  97.2854 355.5991 0001746  70.2310  35.1673 15.59057807  4226
STARLINK-37655          
1 69142U 26110U   26159.25004630 -.01835371  00000+0 -21633-1 0  9990
2 69142  97.2852 355.6154 0002141  74.7995  72.0955 15.64314398  4225
STARLINK-37636          
1 69143U 26110V   26159.25004630 -.02607669  00000+0 -23149-1 0  9993
2 69143  97.2849 355.6574 0001971  98.2078 150.8125 15.71843977  4223
STARLINK-37638          
1 69144U 26110W   26159.25004630 -.02642300  00000+0 -22971-1 0  9997
2 69144  97.2846 355.6605 0001901  97.8838 158.7546 15.72382695  4228
STARLINK-37657          
1 69145U 26110X   26159.25004630 -.02527211  00000+0 -38800-1 0  9999
2 69145  97.2853 355.6019 0001820  74.8352  35.6571 15.58058917  4279
STARLINK-37639          
1 69146U 26110Y   26159.25004630 -.02588085  00000+0 -21989-1 0  9996
2 69146  97.2845 355.6657 0001907  98.6113 168.5463 15.72845617  4277
STARLINK-37661          
1 69147U 26110Z   26159.25004630 -.02745457  00000+0 -52438-1 0  9998
2 69147  97.2852 355.5580 0001842  64.4215 310.8968 15.51823610  4270
STARLINK-37395          
1 69148U 26111A   26159.23004156  .00205569  00000+0  10175-2 0  9995
2 69148  53.1588 196.5511 0001212  73.2464 286.8692 15.80936495  2845
STARLINK-37346          
1 69149U 26111B   26158.59680053  .00250605  00000+0  12302-2 0  9995
2 69149  53.1585 199.7124 0000786 100.4567 259.6544 15.80987715  2744
STARLINK-37332          
1 69150U 26111C   26159.22796371 -.00904975  00000+0 -55211-2 0  9993
2 69150  53.1591 196.5365 0001141 258.4008 101.6886 15.79088070  2845
STARLINK-37297          
1 69151U 26111D   26158.91268112  .00201082  00000+0  99472-3 0  9991
2 69151  53.1586 198.1266 0000962 123.2494 236.8621 15.80961310  2797
STARLINK-37317          
1 69152U 26111E   26159.22681791  .00339039  00000+0  16472-2 0  9991
2 69152  53.1586 196.5287 0000853  64.3540 295.7570 15.80971577  2848
STARLINK-37374          
1 69153U 26111F   26159.25004630 -.02540472  00000+0 -20545-1 0  9990
2 69153  53.1597 196.4335 0001391  68.9243  52.9323 15.73386762  4111
STARLINK-37235          
1 69154U 26111G   26159.25004630 -.02543912  00000+0 -27300-1 0  9999
2 69154  53.1602 196.5379 0001046  48.1970  22.5509 15.66682284  4111
STARLINK-37329          
1 69155U 26111H   26159.22726636  .00151287  00000+0  75486-3 0  9990
2 69155  53.1589 196.5315 0000867 100.8334 259.2786 15.80925290  2843
STARLINK-37345          
1 69156U 26111J   26158.40397311  .00324837  00000+0  15797-2 0  9995
2 69156  53.1585 200.6415 0002315 120.8458 239.2793 15.80989237  2710
STARLINK-37353          
1 69157U 26111K   26159.22560750  .00431389  00000+0  20705-2 0  9992
2 69157  53.1587 196.5214 0001279  48.0548 312.0584 15.80991412  2842
STARLINK-37363          
1 69158U 26111L   26159.09708964  .00212642  00000+0  10526-2 0  9998
2 69158  53.1585 197.1387 0001373  54.5636 305.5515 15.80914232  2828
STARLINK-37343          
1 69159U 26111M   26159.25004630 -.02598712  00000+0 -21859-1 0  9995
2 69159  53.1600 196.4233 0001317  69.0144  57.4723 15.72557619  4113
STARLINK-37328          
1 69160U 26111N   26159.00004630  .00055597  00000+0  28369-3 0  9990
2 69160  53.1589 197.6242 0001255  78.9824  89.2388 15.80850857  4073
STARLINK-37311          
1 69161U 26111P   26159.25004630 -.00078400  00000+0 -45108-3 0  9998
2 69161  53.1594 196.3939 0000625 118.4562  22.8089 15.78092794  4119
STARLINK-36286          
1 69162U 26111Q   26159.25004630 -.00086788  00000+0 -50010-3 0  9995
2 69162  53.1593 196.3839 0001082  73.3062  72.8778 15.78097937  4114
STARLINK-37196          
1 69163U 26111R   26159.00004630  .00058804  00000+0  34071-3 0  9994
2 69163  53.1593 197.6615 0000939 111.3345  38.2671 15.78020591  4073
STARLINK-36288          
1 69164U 26111S   26159.09960372  .00186497  00000+0  10532-2 0  9993
2 69164  53.1597 197.1562 0001107  65.4112 294.7025 15.78085957  2823
STARLINK-37445          
1 69165U 26111T   26159.25004630 -.00072063  00000+0 -41408-3 0  9990
2 69165  53.1593 196.3687 0000752 100.3666  52.7535 15.78088221  4116
